{
    "links": {
        "self": "http://www.neowsapp.com/rest/v1/neo/3579082?api_key=iIulBulltgU6a56xZRHN4H3l9WmuAYTsLGpBGhQ2"
    },
    "id": "3579082",
    "neo_reference_id": "3579082",
    "name": "(2011 SP70)",
    "designation": "2011 SP70",
    "nasa_jpl_url": "http://ssd.jpl.nasa.gov/sbdb.cgi?sstr=3579082",
    "absolute_magnitude_h": 23.1,
    "estimated_diameter": {
        "kilometers": {
            "estimated_diameter_min": 0.063760979,
            "estimated_diameter_max": 0.1425738833
        },
        "meters": {
            "estimated_diameter_min": 63.7609789875,
            "estimated_diameter_max": 142.5738833281
        },
        "miles": {
            "estimated_diameter_min": 0.0396192233,
            "estimated_diameter_max": 0.0885912765
        },
        "feet": {
            "estimated_diameter_min": 209.1895703015,
            "estimated_diameter_max": 467.7620993781
        }
    },
    "is_potentially_hazardous_asteroid": false,
    "close_approach_data": [
        {
            "close_approach_date": "2011-10-24",
            "close_approach_date_full": "2011-Oct-24 02:53",
            "epoch_date_close_approach": 1319424780000,
            "relative_velocity": {
                "kilometers_per_second": "12.311846472",
                "kilometers_per_hour": "44322.6472992871",
                "miles_per_hour": "27540.3693732709"
            },
            "miss_distance": {
                "astronomical": "0.1403966263",
                "lunar": "54.6142876307",
                "kilometers": "21003036.249665981",
                "miles": "13050681.5573972978"
            },
            "orbiting_body": "Earth"
        }
    ],
    "orbital_data": {
        "orbit_id": "5",
        "orbit_determination_date": "2017-04-06 08:52:41",
        "first_observation_date": "2011-09-24",
        "last_observation_date": "2011-10-02",
        "data_arc_in_days": 8,
        "observations_used": 13,
        "orbit_uncertainty": "9",
        "minimum_orbit_intersection": ".053926",
        "jupiter_tisserand_invariant": "3.670",
        "epoch_osculation": "2455829.5",
        "eccentricity": ".5274249670695064",
        "semi_major_axis": "1.98028992403006",
        "inclination": "5.833680493392094",
        "ascending_node_longitude": "145.7172329721774",
        "orbital_period": "1017.86831019203",
        "perihelion_distance": ".9358355760604304",
        "perihelion_argument": "293.5104248039911",
        "aphelion_distance": "3.02474427199969",
        "perihelion_time": "2455893.371303779528",
        "mean_anomaly": "337.4099761920163",
        "mean_motion": ".3536803301520242",
        "equinox": "J2000",
        "orbit_class": {
            "orbit_class_type": "APO",
            "orbit_class_description": "Near-Earth asteroid orbits which cross the Earth’s orbit similar to that of 1862 Apollo",
            "orbit_class_range": "a (semi-major axis) > 1.0 AU; q (perihelion) < 1.017 AU"
        }
    },
    "is_sentry_object": false
}